[
    {
        "Altitude(m)": 610405.2774652854,
        "Argument of Periapsis(deg)": 0.0,
        "Eccentricity": 0.0,
        "Inclination(deg)": 60.0,
        "Latitude(deg)": 52.11114586793387,
        "Longitude(deg)": -57.52263205583921,
        "Mean Anomaly(deg)": -245.4545,
        "RAAN(deg)": 270.0,
        "Satellite Name": "Test1 1195",
        "Satellite Number": 1195,
        "Semi-Major Axis(m)": 6980739.136638005,
        "Time(s)": 0
    },
    {
        "Altitude(m)": 610321.8504959658,
        "Argument of Periapsis(deg)": 0.00010418945913296404,
        "Eccentricity": 0.0,
        "Inclination(deg)": 60.0,
        "Latitude(deg)": 51.745861370358085,
        "Longitude(deg)": -56.753739701988984,
        "Mean Anomaly(deg)": -244.83439385453818,
        "RAAN(deg)": 269.99957995086027,
        "Satellite Name": "Test1 1195",
        "Satellite Number": 1195,
        "Semi-Major Axis(m)": 6980739.136638005,
        "Time(s)": 10
    }
]